{"type": "FeatureCollection", "features": [ {"type": "Feature", "properties": {"norad_id": 43010, "name": "FENGYUN 3D", "group": "weather", "lat": 32.560645247381565, "lon": -37.79611017237456, "alt_km": 824.7903885672931, "timestamp": "2025-12-27T11:23:19.520668+00:00", "meta": {"OBJECT_NAME": "FENGYUN 3D", "OBJECT_ID": "2017-072A", "EPOCH": "2025-12-27T04:28:04.388160", "MEAN_MOTION": 14.19689225, "ECCENTRICITY": 0.0001636, "INCLINATION": 98.9917, "RA_OF_ASC_NODE": 327.7141, "ARG_OF_PERICENTER": 143.3908, "MEAN_ANOMALY": 216.7379, "EPHEMERIS_TYPE": 0, "CLASSIFICATION_TYPE": "U", "NORAD_CAT_ID": 43010, "ELEMENT_SET_NO": 999, "REV_AT_EPOCH": 42058, "BSTAR": 0.00026496, "MEAN_MOTION_DOT": 5.14e-06, "MEAN_MOTION_DDOT": 0}, "tle": {"line1": "1 43010U 17072A   25361.18616190  .00000514  00000+0  26496-3 0  9993", "line2": "2 43010  98.9917 327.7141 0001636 143.3908 216.7379 14.19689225420583"}}, "geometry": {"type": "Point", "coordinates": [-37.79611017237456, 32.560645247381565]}}, {"type": "Feature", "properties": {"norad_id": 43013, "name": "NOAA 20 (JPSS-1)", "group": "weather", "lat": 3.052088658705864, "lon": 118.08242527903482, "alt_km": 829.9763406693019, "timestamp": "2025-12-27T11:23:19.520679+00:00", "meta": {"OBJECT_NAME": "NOAA 20 (JPSS-1)", "OBJECT_ID": "2017-073A", "EPOCH": "2025-12-27T03:47:31.701120", "MEAN_MOTION": 14.19529711, "ECCENTRICITY": 0.0002051, "INCLINATION": 98.7617, "RA_OF_ASC_NODE": 297.2982, "ARG_OF_PERICENTER": 66.77, "MEAN_ANOMALY": 293.3692, "EPHEMERIS_TYPE": 0, "CLASSIFICATION_TYPE": "U", "NORAD_CAT_ID": 43013, "ELEMENT_SET_NO": 999, "REV_AT_EPOCH": 42006, "BSTAR": 8.0447e-05, "MEAN_MOTION_DOT": 1.26e-06, "MEAN_MOTION_DDOT": 0}, "tle": {"line1": "1 43013U 17073A   25361.15800580  .00000126  00000+0  80447-4 0  9998", "line2": "2 43013  98.7617 297.2982 0002051  66.7700 293.3692 14.19529711420060"}}, "geometry": {"type": "Point", "coordinates": [118.08242527903482, 3.052088658705864]}}, {"type": "Feature", "properties": {"norad_id": 43226, "name": "GOES 17", "group": "weather", "lat": 0.4966327886980359, "lon": 177.49377017124587, "alt_km": 35789.127176369344, "timestamp": "2025-12-27T11:23:19.520692+00:00", "meta": {"OBJECT_NAME": "GOES 17", "OBJECT_ID": "2018-022A", "EPOCH": "2025-12-27T00:49:20.578080", "MEAN_MOTION": 1.00271355, "ECCENTRICITY": 0.0003213, "INCLINATION": 0.4926, "RA_OF_ASC_NODE": 89.0032, "ARG_OF_PERICENTER": 191.1292, "MEAN_ANOMALY": 98.4754, "EPHEMERIS_TYPE": 0, "CLASSIFICATION_TYPE": "U", "NORAD_CAT_ID": 43226, "ELEMENT_SET_NO": 999, "REV_AT_EPOCH": 2869, "BSTAR": 0, "MEAN_MOTION_DOT": -1.6e-06, "MEAN_MOTION_DDOT": 0}, "tle": {"line1": "1 43226U 18022A   25361.03426595 -.00000160  00000+0  00000+0 0  9997", "line2": "2 43226   0.4926  89.0032 0003213 191.1292  98.4754  1.00271355 28692"}}, "geometry": {"type": "Point", "coordinates": [177.49377017124587, 0.4966327886980359]}}, {"type": "Feature", "properties": {"norad_id": 43491, "name": "FENGYUN 2H", "group": "weather", "lat": -2.58576371158721, "lon": -13.622723698602453, "alt_km": 35788.3797906978, "timestamp": "2025-12-27T11:23:19.520704+00:00", "meta": {"OBJECT_NAME": "FENGYUN 2H", "OBJECT_ID": "2018-050A", "EPOCH": "2025-12-27T03:06:20.069280", "MEAN_MOTION": 1.00270024, "ECCENTRICITY": 0.0002499, "INCLINATION": 2.5857, "RA_OF_ASC_NODE": 81.1774, "ARG_OF_PERICENTER": 167.0859, "MEAN_ANOMALY": 333.5093, "EPHEMERIS_TYPE": 0, "CLASSIFICATION_TYPE": "U", "NORAD_CAT_ID": 43491, "ELEMENT_SET_NO": 999, "REV_AT_EPOCH": 2771, "BSTAR": 0, "MEAN_MOTION_DOT": -1.08e-06, "MEAN_MOTION_DDOT": 0}, "tle": {"line1": "1 43491U 18050A   25361.12939895 -.00000108  00000+0  00000+0 0  9996", "line2": "2 43491   2.5857  81.1774 0002499 167.0859 333.5093  1.00270024 27717"}}, "geometry": {"type": "Point", "coordinates": [-13.622723698602453, -2.58576371158721]}}, {"type": "Feature", "properties": {"norad_id": 43689, "name": "METOP-C", "group": "weather", "lat": 60.2688155950299, "lon": 43.48202553419941, "alt_km": 814.201330938301, "timestamp": "2025-12-27T11:23:19.520738+00:00", "meta": {"OBJECT_NAME": "METOP-C", "OBJECT_ID": "2018-087A", "EPOCH": "2025-12-27T04:20:36.279744", "MEAN_MOTION": 14.21489962, "ECCENTRICITY": 5.18e-05, "INCLINATION": 98.6909, "RA_OF_ASC_NODE": 58.7278, "ARG_OF_PERICENTER": 11.2632, "MEAN_ANOMALY": 348.8557, "EPHEMERIS_TYPE": 0, "CLASSIFICATION_TYPE": "U", "NORAD_CAT_ID": 43689, "ELEMENT_SET_NO": 999, "REV_AT_EPOCH": 37039, "BSTAR": 9.2729e-05, "MEAN_MOTION_DOT": 1.59e-06, "MEAN_MOTION_DDOT": 0}, "tle": {"line1": "1 43689U 18087A   25361.18097546  .00000159  00000+0  92729-4 0  9998", "line2": "2 43689  98.6909  58.7278 0000518  11.2632 348.8557 14.21489962370397"}}, "geometry": {"type": "Point", "coordinates": [43.48202553419941, 60.2688155950299]}}, {"type": "Feature", "properties": {"norad_id": 43823, "name": "GEO-KOMPSAT-2A", "group": "weather", "lat": -0.02567863943764865, "lon": 35.278971875072806, "alt_km": 35785.571391474085, "timestamp": "2025-12-27T11:23:19.520753+00:00", "meta": {"OBJECT_NAME": "GEO-KOMPSAT-2A", "OBJECT_ID": "2018-100A", "EPOCH": "2025-12-27T01:00:38.527776", "MEAN_MOTION": 1.00272384, "ECCENTRICITY": 3.4e-05, "INCLINATION": 0.0437, "RA_OF_ASC_NODE": 168.9478, "ARG_OF_PERICENTER": 299.8349, "MEAN_ANOMALY": 130.4095, "EPHEMERIS_TYPE": 0, "CLASSIFICATION_TYPE": "U", "NORAD_CAT_ID": 43823, "ELEMENT_SET_NO": 999, "REV_AT_EPOCH": 2590, "BSTAR": 0, "MEAN_MOTION_DOT": -3.21e-06, "MEAN_MOTION_DDOT": 0}, "tle": {"line1": "1 43823U 18100A   25361.04211259 -.00000321  00000+0  00000+0 0  9996", "line2": "2 43823   0.0437 168.9478 0000340 299.8349 130.4095  1.00272384 25905"}}, "geometry": {"type": "Point", "coordinates": [35.278971875072806, -0.02567863943764865]}}, {"type": "Feature", "properties": {"norad_id": 44387, "name": "METEOR-M2 2", "group": "weather", "lat": -72.99385980167838, "lon": 12.20098974558356, "alt_km": 819.4105813692622, "timestamp": "2025-12-27T11:23:19.520768+00:00", "meta": {"OBJECT_NAME": "METEOR-M2 2", "OBJECT_ID": "2019-038A", "EPOCH": "2025-12-27T04:59:55.264128", "MEAN_MOTION": 14.24299023, "ECCENTRICITY": 0.000186, "INCLINATION": 98.8992, "RA_OF_ASC_NODE": 341.1152, "ARG_OF_PERICENTER": 121.2166, "MEAN_ANOMALY": 238.9195, "EPHEMERIS_TYPE": 0, "CLASSIFICATION_TYPE": "U", "NORAD_CAT_ID": 44387, "ELEMENT_SET_NO": 999, "REV_AT_EPOCH": 33681, "BSTAR": 0.00028282, "MEAN_MOTION_DOT": 6.07e-06, "MEAN_MOTION_DDOT": 0}, "tle": {"line1": "1 44387U 19038A   25361.20827852  .00000607  00000+0  28282-3 0  9995", "line2": "2 44387  98.8992 341.1152 0001860 121.2166 238.9195 14.24299023336818"}}, "geometry": {"type": "Point", "coordinates": [12.20098974558356, -72.99385980167838]}}, {"type": "Feature", "properties": {"norad_id": 47719, "name": "ARKTIKA-M 1", "group": "weather", "lat": 17.619078501011103, "lon": -107.20665179395564, "alt_km": 10299.744869253438, "timestamp": "2025-12-27T11:23:19.520781+00:00", "meta": {"OBJECT_NAME": "ARKTIKA-M 1", "OBJECT_ID": "2021-016A", "EPOCH": "2025-12-27T00:43:39.557280", "MEAN_MOTION": 2.00630341, "ECCENTRICITY": 0.7211282, "INCLINATION": 63.1774, "RA_OF_ASC_NODE": 82.0436, "ARG_OF_PERICENTER": 269.1745, "MEAN_ANOMALY": 15.5297, "EPHEMERIS_TYPE": 0, "CLASSIFICATION_TYPE": "U", "NORAD_CAT_ID": 47719, "ELEMENT_SET_NO": 999, "REV_AT_EPOCH": 3533, "BSTAR": 0, "MEAN_MOTION_DOT": -4.6e-07, "MEAN_MOTION_DDOT": 0}, "tle": {"line1": "1 47719U 21016A   25361.03031895 -.00000046  00000+0  00000+0 0  9993", "line2": "2 47719  63.1774  82.0436 7211282 269.1745  15.5297  2.00630341 35330"}}, "geometry": {"type": "Point", "coordinates": [-107.20665179395564, 17.619078501011103]}}, {"type": "Feature", "properties": {"norad_id": 49008, "name": "FENGYUN 3E", "group": "weather", "lat": 9.615779498555652, "lon": 0.32612999429518696, "alt_km": 828.083602927707, "timestamp": "2025-12-27T11:23:19.520792+00:00", "meta": {"OBJECT_NAME": "FENGYUN 3E", "OBJECT_ID": "2021-062A", "EPOCH": "2025-12-27T04:34:41.244096", "MEAN_MOTION": 14.19882803, "ECCENTRICITY": 0.0001061, "INCLINATION": 98.7483, "RA_OF_ASC_NODE": 1.5406, "ARG_OF_PERICENTER": 182.5255, "MEAN_ANOMALY": 177.5916, "EPHEMERIS_TYPE": 0, "CLASSIFICATION_TYPE": "U", "NORAD_CAT_ID": 49008, "ELEMENT_SET_NO": 999, "REV_AT_EPOCH": 23217, "BSTAR": 0.00015289, "MEAN_MOTION_DOT": 2.8e-06, "MEAN_MOTION_DDOT": 0}, "tle": {"line1": "1 49008U 21062A   25361.19075514  .00000280  00000+0  15289-3 0  9998", "line2": "2 49008  98.7483   1.5406 0001061 182.5255 177.5916 14.19882803232179"}}, "geometry": {"type": "Point", "coordinates": [0.32612999429518696, 9.615779498555652]}}, {"type": "Feature", "properties": {"norad_id": 51850, "name": "GOES 18", "group": "weather", "lat": -0.023659651389254036, "lon": 130.02423555549288, "alt_km": 35788.39555542475, "timestamp": "2025-12-27T11:23:19.520803+00:00", "meta": {"OBJECT_NAME": "GOES 18", "OBJECT_ID": "2022-021A", "EPOCH": "2025-12-27T01:11:38.876064", "MEAN_MOTION": 1.00271498, "ECCENTRICITY": 5.38e-05, "INCLINATION": 0.0427, "RA_OF_ASC_NODE": 194.7343, "ARG_OF_PERICENTER": 115.5056, "MEAN_ANOMALY": 26.4539, "EPHEMERIS_TYPE": 0, "CLASSIFICATION_TYPE": "U", "NORAD_CAT_ID": 51850, "ELEMENT_SET_NO": 999, "REV_AT_EPOCH": 486, "BSTAR": 0, "MEAN_MOTION_DOT": 1.19e-06, "MEAN_MOTION_DDOT": 0}, "tle": {"line1": "1 51850U 22021A   25361.04975551  .00000119  00000+0  00000+0 0  9998", "line2": "2 51850   0.0427 194.7343 0000538 115.5056  26.4539  1.00271498  4863"}}, "geometry": {"type": "Point", "coordinates": [130.02423555549288, -0.023659651389254036]}}]}